CTC2_L_00617007-03
1 41756U 24451TZ  26037.47799769  .00000000  00000+0  00000-0 0  9994
2 41756  65.0000 180.0000 0000000   0.0000 144.0000  5.03557253    10
CTC2_L_00617007-04
1 41757U 24298EU  26037.47799769  .00000000  00000+0  00000-0 0  9994
2 41757  65.0000 180.0000 0000000   0.0000 180.0000  5.03557253    11
CTC2_L_00617007-05
1 41758U 25141IG  26037.47799769  .00000000  00000+0  00000-0 0  9993
2 41758  65.0000 180.0000 0000000   0.0000 216.0000  5.03557253    12
CTC2_L_00617007-06
1 41759U 24626JV  26037.47799769  .00000000  00000+0  00000-0 0  9991
2 41759  65.0000 180.0000 0000000   0.0000 252.0000  5.03557253    13
CTC2_L_00617007-07
1 41760U 24219OJ  26037.47799769  .00000000  00000+0  00000-0 0  9991
2 41760  65.0000 180.0000 0000000   0.0000 288.0000  5.03557253    14
CTC2_L_00617007-08
1 41761U 22668HJ  26037.47799769  .00000000  00000+0  00000-0 0  9998
2 41761  65.0000 180.0000 0000000   0.0000 324.0000  5.03557253    16
CTC2_L_00617007-09
1 41762U 23262UW  26037.47799769  .00000000  00000+0  00000-0 0  9990
2 41762  65.0000 180.0000 0000000   0.0000   0.0000  5.03557253    18
CTC2_L_00617007-10
1 41763U 24896BT  26037.47799769  .00000000  00000+0  00000-0 0  9995
2 41763  65.0000 180.0000 0000000   0.0000  36.0000  5.03557253    18
CTC2_L_00617008-01
1 41764U 22020VG  26037.47799769  .00000000  00000+0  00000-0 0  9993
2 41764  65.0000 210.0000 0000000   0.0000  84.0000  5.03557253    16
CTC2_L_00617008-02
1 41765U 22888GU  26037.47799769  .00000000  00000+0  00000-0 0  9996
2 41765  65.0000 210.0000 0000000   0.0000 120.0000  5.03557253    18
CTC2_L_00617008-03
1 41766U 26703GE  26037.47799769  .00000000  00000+0  00000-0 0  9997
2 41766  65.0000 210.0000 0000000   0.0000 156.0000  5.03557253    18
CTC2_L_00617008-04
1 41767U 26869DD  26037.47799769  .00000000  00000+0  00000-0 0  9991
2 41767  65.0000 210.0000 0000000   0.0000 192.0000  5.03557253    19
CTC2_L_00617008-05
1 41768U 22881MT  26037.47799769  .00000000  00000+0  00000-0 0  9992
2 41768  65.0000 210.0000 0000000   0.0000 228.0000  5.03557253    10
CTC2_L_00617008-06
1 41769U 25986AI  26037.47799769  .00000000  00000+0  00000-0 0  9992
2 41769  65.0000 210.0000 0000000   0.0000 264.0000  5.03557253    11
CTC2_L_00617008-07
1 41770U 26696QB  26037.47799769  .00000000  00000+0  00000-0 0  9993
2 41770  65.0000 210.0000 0000000   0.0000 300.0000  5.03557253    14
CTC2_L_00617008-08
1 41771U 22759VY  26037.47799769  .00000000  00000+0  00000-0 0  9990
2 41771  65.0000 210.0000 0000000   0.0000 336.0000  5.03557253    14
CTC2_L_00617008-09
1 41772U 25298UF  26037.47799769  .00000000  00000+0  00000-0 0  9992
2 41772  65.0000 210.0000 0000000   0.0000  12.0000  5.03557253    16
CTC2_L_00617008-10
1 41773U 24667DW  26037.47799769  .00000000  00000+0  00000-0 0  9992
2 41773  65.0000 210.0000 0000000   0.0000  48.0000  5.03557253    16
CTC2_L_00617009-01
1 41774U 24234UX  26037.47799769  .00000000  00000+0  00000-0 0  9993
2 41774  65.0000 240.0000 0000000   0.0000  96.0000  5.03557253    13
CTC2_L_00617009-02
1 41775U 22444AX  26037.47799769  .00000000  00000+0  00000-0 0  9995
2 41775  65.0000 240.0000 0000000   0.0000 132.0000  5.03557253    15
CTC2_L_00617009-03
1 41776U 22927CC  26037.47799769  .00000000  00000+0  00000-0 0  9992
2 41776  65.0000 240.0000 0000000   0.0000 168.0000  5.03557253    15
CTC2_L_00617009-04
1 41777U 26887GD  26037.47799769  .00000000  00000+0  00000-0 0  9992
2 41777  65.0000 240.0000 0000000   0.0000 204.0000  5.03557253    17
CTC2_L_00617009-05
1 41778U 23408BQ  26037.47799769  .00000000  00000+0  00000-0 0  9999
2 41778  65.0000 240.0000 0000000   0.0000 240.0000  5.03557253    18
CTC2_L_00617009-06
1 41779U 25336YY  26037.47799769  .00000000  00000+0  00000-0 0  9992
2 41779  65.0000 240.0000 0000000   0.0000 276.0000  5.03557253    18
CTC2_L_00617009-07
1 41780U 26498KJ  26037.47799769  .00000000  00000+0  00000-0 0  9994
2 41780  65.0000 240.0000 0000000   0.0000 312.0000  5.03557253    11
CTC2_L_00617009-08
1 41781U 22392JM  26037.47799769  .00000000  00000+0  00000-0 0  9994
2 41781  65.0000 240.0000 0000000   0.0000 348.0000  5.03557253    11
CTC2_L_00617009-09
1 41782U 26430QP  26037.47799769  .00000000  00000+0  00000-0 0  9992
2 41782  65.0000 240.0000 0000000   0.0000  24.0000  5.03557253    13
CTC2_L_00617009-10
1 41783U 22034MO  26037.47799769  .00000000  00000+0  00000-0 0  9999
2 41783  65.0000 240.0000 0000000   0.0000  60.0000  5.03557253    14
CTC2_L_00617010-01
1 41784U 22659JM  26037.47799769  .00000000  00000+0  00000-0 0  9993
2 41784  65.0000 270.0000 0000000   0.0000 108.0000  5.03557253    11
CTC2_L_00617010-02
1 41785U 25909GY  26037.47799769  .00000000  00000+0  00000-0 0  9995
2 41785  65.0000 270.0000 0000000   0.0000 144.0000  5.03557253    12
CTC2_L_00617010-03
1 41786U 22285AX  26037.47799769  .00000000  00000+0  00000-0 0  9990
2 41786  65.0000 270.0000 0000000   0.0000 180.0000  5.03557253    13
CTC2_L_00617010-04
1 41787U 26294IY  26037.47799769  .00000000  00000+0  00000-0 0  9995
2 41787  65.0000 270.0000 0000000   0.0000 216.0000  5.03557253    14
CTC2_L_00617010-05
1 41788U 23296CV  26037.47799769  .00000000  00000+0  00000-0 0  9995
2 41788  65.0000 270.0000 0000000   0.0000 252.0000  5.03557253    15
CTC2_L_00617010-06
1 41789U 26831TV  26037.47799769  .00000000  00000+0  00000-0 0  9994
2 41789  65.0000 270.0000 0000000   0.0000 288.0000  5.03557253    15
CTC2_L_00617010-07
1 41790U 24746OH  26037.47799769  .00000000  00000+0  00000-0 0  9999
2 41790  65.0000 270.0000 0000000   0.0000 324.0000  5.03557253    18
CTC2_L_00617010-08
1 41791U 23018DE  26037.47799769  .00000000  00000+0  00000-0 0  9991
2 41791  65.0000 270.0000 0000000   0.0000   0.0000  5.03557253    10
CTC2_L_00617010-09
1 41792U 22537SO  26037.47799769  .00000000  00000+0  00000-0 0  9997
2 41792  65.0000 270.0000 0000000   0.0000  36.0000  5.03557253    10
CTC2_L_00617010-10
1 41793U 24926ZN  26037.47799769  .00000000  00000+0  00000-0 0  9992
2 41793  65.0000 270.0000 0000000   0.0000  72.0000  5.03557253    11
CTC2_L_00617011-01
1 41794U 26737PT  26037.47799769  .00000000  00000+0  00000-0 0  9995
2 41794  65.0000 300.0000 0000000   0.0000 120.0000  5.03557253    10
CTC2_L_00617011-02
1 41795U 23117JN  26037.47799769  .00000000  00000+0  00000-0 0  9995
2 41795  65.0000 300.0000 0000000   0.0000 156.0000  5.03557253    10
CTC2_L_00617011-03
1 41796U 25722VK  26037.47799769  .00000000  00000+0  00000-0 0  9990
2 41796  65.0000 300.0000 0000000   0.0000 192.0000  5.03557253    11
CTC2_L_00617011-04
1 41797U 25107NJ  26037.47799769  .00000000  00000+0  00000-0 0  9998
2 41797  65.0000 300.0000 0000000   0.0000 228.0000  5.03557253    12
CTC2_L_00617011-05
1 41798U 23093WX  26037.47799769  .00000000  00000+0  00000-0 0  9991
2 41798  65.0000 300.0000 0000000   0.0000 264.0000  5.03557253    13
CTC2_L_00617011-06
1 41799U 26265FF  26037.47799769  .00000000  00000+0  00000-0 0  9996
2 41799  65.0000 300.0000 0000000   0.0000 300.0000  5.03557253    15
CTC2_L_00617011-07
1 41800U 23648TJ  26037.47799769  .00000000  00000+0  00000-0 0  9991
2 41800  65.0000 300.0000 0000000   0.0000 336.0000  5.03557253    17
CTC2_L_00617011-08
1 41801U 22478LP  26037.47799769  .00000000  00000+0  00000-0 0  9992
2 41801  65.0000 300.0000 0000000   0.0000  12.0000  5.03557253    19
CTC2_L_00617011-09
1 41802U 24833WG  26037.47799769  .00000000  00000+0  00000-0 0  9990
2 41802  65.0000 300.0000 0000000   0.0000  48.0000  5.03557253    19
CTC2_L_00617011-10
1 41803U 26924ZI  26037.47799769  .00000000  00000+0  00000-0 0  9994
2 41803  65.0000 300.0000 0000000   0.0000  84.0000  5.03557253    10
CTC2_L_00617012-01
1 41804U 25312HR  26037.47799769  .00000000  00000+0  00000-0 0  9995
2 41804  65.0000 330.0000 0000000   0.0000 132.0000  5.03557253    18
CTC2_L_00617012-02
1 41805U 25337QP  26037.47799769  .00000000  00000+0  00000-0 0  9993
2 41805  65.0000 330.0000 0000000   0.0000 168.0000  5.03557253    18
CTC2_L_00617012-03
1 41806U 22714KR  26037.47799769  .00000000  00000+0  00000-0 0  9990
2 41806  65.0000 330.0000 0000000   0.0000 204.0000  5.03557253    10
CTC2_L_00617012-04
1 41807U 24799OI  26037.47799769  .00000000  00000+0  00000-0 0  9996
2 41807  65.0000 330.0000 0000000   0.0000 240.0000  5.03557253    11
CTC2_L_00617012-05
1 41808U 23490EK  26037.47799769  .00000000  00000+0  00000-0 0  9994
2 41808  65.0000 330.0000 0000000   0.0000 276.0000  5.03557253    11
CTC2_L_00617012-06
1 41809U 24340JY  26037.47799769  .00000000  00000+0  00000-0 0  9990
2 41809  65.0000 330.0000 0000000   0.0000 312.0000  5.03557253    13
CTC2_L_00617012-07
1 41810U 26376KI  26037.47799769  .00000000  00000+0  00000-0 0  9993
2 41810  65.0000 330.0000 0000000   0.0000 348.0000  5.03557253    14
CTC2_L_00617012-08
1 41811U 25656JI  26037.47799769  .00000000  00000+0  00000-0 0  9994
2 41811  65.0000 330.0000 0000000   0.0000  24.0000  5.03557253    16
CTC2_L_00617012-09
1 41812U 23138OP  26037.47799769  .00000000  00000+0  00000-0 0  9998
2 41812  65.0000 330.0000 0000000   0.0000  60.0000  5.03557253    17
CTC2_L_00617012-10
1 41813U 26038NM  26037.47799769  .00000000  00000+0  00000-0 0  9991
2 41813  65.0000 330.0000 0000000   0.0000  96.0000  5.03557253    17
